{
    "links": {
        "self": "http://www.neowsapp.com/rest/v1/neo/3753711?api_key=iIulBulltgU6a56xZRHN4H3l9WmuAYTsLGpBGhQ2"
    },
    "id": "3753711",
    "neo_reference_id": "3753711",
    "name": "(2016 LD2)",
    "designation": "2016 LD2",
    "nasa_jpl_url": "http://ssd.jpl.nasa.gov/sbdb.cgi?sstr=3753711",
    "absolute_magnitude_h": 22.9,
    "estimated_diameter": {
        "kilometers": {
            "estimated_diameter_min": 0.0699125232,
            "estimated_diameter_max": 0.1563291544
        },
        "meters": {
            "estimated_diameter_min": 69.9125232246,
            "estimated_diameter_max": 156.3291544087
        },
        "miles": {
            "estimated_diameter_min": 0.0434416145,
            "estimated_diameter_max": 0.097138403
        },
        "feet": {
            "estimated_diameter_min": 229.3718026961,
            "estimated_diameter_max": 512.8909429502
        }
    },
    "is_potentially_hazardous_asteroid": false,
    "close_approach_data": [
        {
            "close_approach_date": "2016-07-10",
            "close_approach_date_full": "2016-Jul-10 17:55",
            "epoch_date_close_approach": 1468173300000,
            "relative_velocity": {
                "kilometers_per_second": "13.9545939289",
                "kilometers_per_hour": "50236.5381441444",
                "miles_per_hour": "31215.0311596213"
            },
            "miss_distance": {
                "astronomical": "0.192837271",
                "lunar": "75.013698419",
                "kilometers": "28848044.99821277",
                "miles": "17925343.952645426"
            },
            "orbiting_body": "Earth"
        }
    ],
    "orbital_data": {
        "orbit_id": "5",
        "orbit_determination_date": "2017-04-06 08:25:34",
        "first_observation_date": "2016-06-03",
        "last_observation_date": "2016-06-09",
        "data_arc_in_days": 6,
        "observations_used": 17,
        "orbit_uncertainty": "9",
        "minimum_orbit_intersection": ".0658934",
        "jupiter_tisserand_invariant": "3.054",
        "epoch_osculation": "2457543.5",
        "eccentricity": ".6997684903538798",
        "semi_major_axis": "2.516859108207393",
        "inclination": "6.79397482355945",
        "ascending_node_longitude": "185.8450421614774",
        "orbital_period": "1458.434012379324",
        "perihelion_distance": ".7556404096236934",
        "perihelion_argument": "149.8071488185824",
        "aphelion_distance": "4.278077806791093",
        "perihelion_time": "2457611.500190407097",
        "mean_anomaly": "343.2148260814231",
        "mean_motion": ".2468401017422018",
        "equinox": "J2000",
        "orbit_class": {
            "orbit_class_type": "APO",
            "orbit_class_description": "Near-Earth asteroid orbits which cross the Earth’s orbit similar to that of 1862 Apollo",
            "orbit_class_range": "a (semi-major axis) > 1.0 AU; q (perihelion) < 1.017 AU"
        }
    },
    "is_sentry_object": false
}